[{"OBJECT_NAME":"COSMOS 2251 DEB","OBJECT_ID":"1993-036TM","EPOCH":"2026-04-25T16:35:49.236576","MEAN_MOTION":14.47934243,"ECCENTRICITY":0.0075578,"INCLINATION":74.0131,"RA_OF_ASC_NODE":226.1753,"ARG_OF_PERICENTER":337.7821,"MEAN_ANOMALY":22.0067,"EPHEMERIS_TYPE":0,"CLASSIFICATION_TYPE":"U","NORAD_CAT_ID":34468,"ELEMENT_SET_NO":999,"REV_AT_EPOCH":90400,"BSTAR":0.00016841,"MEAN_MOTION_DOT":6.18e-6,"MEAN_MOTION_DDOT":0},{"OBJECT_NAME":"COSMOS 2251 DEB","OBJECT_ID":"1993-036TR","EPOCH":"2026-04-25T01:23:33.062784","MEAN_MOTION":13.70710634,"ECCENTRICITY":0.03287063,"INCLINATION":74.0821,"RA_OF_ASC_NODE":238.802,"ARG_OF_PERICENTER":338.7286,"MEAN_ANOMALY":20.0421,"EPHEMERIS_TYPE":0,"CLASSIFICATION_TYPE":"U","NORAD_CAT_ID":34472,"ELEMENT_SET_NO":999,"REV_AT_EPOCH":85553,"BSTAR":0.00027558395,"MEAN_MOTION_DOT":3.36e-6,"MEAN_MOTION_DDOT":0},{"OBJECT_NAME":"COSMOS 2251 DEB","OBJECT_ID":"1993-036TT","EPOCH":"2026-04-25T09:10:23.484000","MEAN_MOTION":14.07393619,"ECCENTRICITY":0.0199148,"INCLINATION":74.0745,"RA_OF_ASC_NODE":92.6453,"ARG_OF_PERICENTER":136.1842,"MEAN_ANOMALY":24.2779,"EPHEMERIS_TYPE":0,"CLASSIFICATION_TYPE":"U","NORAD_CAT_ID":34474,"ELEMENT_SET_NO":999,"REV_AT_EPOCH":87388,"BSTAR":0.00092206,"MEAN_MOTION_DOT":1.835e-5,"MEAN_MOTION_DDOT":0},{"OBJECT_NAME":"COSMOS 2251 DEB","OBJECT_ID":"1993-036TV","EPOCH":"2026-04-25T09:06:23.196096","MEAN_MOTION":13.83342428,"ECCENTRICITY":0.0313536,"INCLINATION":74.0043,"RA_OF_ASC_NODE":216.969,"ARG_OF_PERICENTER":47.3536,"MEAN_ANOMALY":315.356,"EPHEMERIS_TYPE":0,"CLASSIFICATION_TYPE":"U","NORAD_CAT_ID":34476,"ELEMENT_SET_NO":999,"REV_AT_EPOCH":85485,"BSTAR":0.0013342,"MEAN_MOTION_DOT":2.12e-5,"MEAN_MOTION_DDOT":0},{"OBJECT_NAME":"COSMOS 2251 DEB","OBJECT_ID":"1993-036TW","EPOCH":"2026-04-25T10:21:08.188128","MEAN_MOTION":14.57723324,"ECCENTRICITY":0.0075697,"INCLINATION":73.9768,"RA_OF_ASC_NODE":174.5448,"ARG_OF_PERICENTER":328.2081,"MEAN_ANOMALY":48.0987,"EPHEMERIS_TYPE":0,"CLASSIFICATION_TYPE":"U","NORAD_CAT_ID":34477,"ELEMENT_SET_NO":999,"REV_AT_EPOCH":90573,"BSTAR":0.0003844,"MEAN_MOTION_DOT":1.794e-5,"MEAN_MOTION_DDOT":0},{"OBJECT_NAME":"COSMOS 2251 DEB","OBJECT_ID":"1993-036TX","EPOCH":"2026-04-25T02:03:55.596960","MEAN_MOTION":15.2700903,"ECCENTRICITY":0.00320989,"INCLINATION":74.0374,"RA_OF_ASC_NODE":88.7684,"ARG_OF_PERICENTER":254.6464,"MEAN_ANOMALY":105.1189,"EPHEMERIS_TYPE":0,"CLASSIFICATION_TYPE":"U","NORAD_CAT_ID":34478,"ELEMENT_SET_NO":999,"REV_AT_EPOCH":90995,"BSTAR":0.0044477953,"MEAN_MOTION_DOT":0.00121602,"MEAN_MOTION_DDOT":0},{"OBJECT_NAME":"COSMOS 2251 DEB","OBJECT_ID":"1993-036UA","EPOCH":"2026-04-25T14:45:01.135872","MEAN_MOTION":14.32985558,"ECCENTRICITY":0.0070964,"INCLINATION":73.9778,"RA_OF_ASC_NODE":168.0901,"ARG_OF_PERICENTER":309.6501,"MEAN_ANOMALY":205.6245,"EPHEMERIS_TYPE":0,"CLASSIFICATION_TYPE":"U","NORAD_CAT_ID":34481,"ELEMENT_SET_NO":999,"REV_AT_EPOCH":89366,"BSTAR":0.00037478,"MEAN_MOTION_DOT":1.028e-5,"MEAN_MOTION_DDOT":0},{"OBJECT_NAME":"COSMOS 2251 DEB","OBJECT_ID":"1993-036UB","EPOCH":"2026-04-25T16:27:39.384864","MEAN_MOTION":14.72793936,"ECCENTRICITY":0.0038849,"INCLINATION":74.0367,"RA_OF_ASC_NODE":323.4336,"ARG_OF_PERICENTER":354.3198,"MEAN_ANOMALY":73.3896,"EPHEMERIS_TYPE":0,"CLASSIFICATION_TYPE":"U","NORAD_CAT_ID":34482,"ELEMENT_SET_NO":999,"REV_AT_EPOCH":90157,"BSTAR":0.0012931,"MEAN_MOTION_DOT":8.343e-5,"MEAN_MOTION_DDOT":0},{"OBJECT_NAME":"COSMOS 2251 DEB","OBJECT_ID":"1993-036UE","EPOCH":"2026-04-24T17:18:45.506592","MEAN_MOTION":13.54909832,"ECCENTRICITY":0.03812372,"INCLINATION":73.9177,"RA_OF_ASC_NODE":348.7198,"ARG_OF_PERICENTER":352.5735,"MEAN_ANOMALY":62.6724,"EPHEMERIS_TYPE":0,"CLASSIFICATION_TYPE":"U","NORAD_CAT_ID":34544,"ELEMENT_SET_NO":999,"REV_AT_EPOCH":84683,"BSTAR":0.00046746289,"MEAN_MOTION_DOT":4.89e-6,"MEAN_MOTION_DDOT":0},{"OBJECT_NAME":"COSMOS 2251 DEB","OBJECT_ID":"1993-036UG","EPOCH":"2026-04-25T18:59:04.660224","MEAN_MOTION":14.46034657,"ECCENTRICITY":0.0020511,"INCLINATION":74.0318,"RA_OF_ASC_NODE":359.0993,"ARG_OF_PERICENTER":45.4647,"MEAN_ANOMALY":66.1693,"EPHEMERIS_TYPE":0,"CLASSIFICATION_TYPE":"U","NORAD_CAT_ID":34546,"ELEMENT_SET_NO":999,"REV_AT_EPOCH":89963,"BSTAR":0.00040478,"MEAN_MOTION_DOT":1.42e-5,"MEAN_MOTION_DDOT":0},{"OBJECT_NAME":"COSMOS 2251 DEB","OBJECT_ID":"1993-036UH","EPOCH":"2026-04-25T06:33:59.789088","MEAN_MOTION":14.75338427,"ECCENTRICITY":0.0018791,"INCLINATION":74.03,"RA_OF_ASC_NODE":200.0935,"ARG_OF_PERICENTER":250.107,"MEAN_ANOMALY":109.8079,"EPHEMERIS_TYPE":0,"CLASSIFICATION_TYPE":"U","NORAD_CAT_ID":34547,"ELEMENT_SET_NO":999,"REV_AT_EPOCH":90489,"BSTAR":0.001247,"MEAN_MOTION_DOT":8.457e-5,"MEAN_MOTION_DDOT":0},{"OBJECT_NAME":"COSMOS 2251 DEB","OBJECT_ID":"1993-036UP","EPOCH":"2026-04-25T15:03:43.140096","MEAN_MOTION":14.59250512,"ECCENTRICITY":0.0017677,"INCLINATION":74.0244,"RA_OF_ASC_NODE":296.8268,"ARG_OF_PERICENTER":345.8333,"MEAN_ANOMALY":126.9975,"EPHEMERIS_TYPE":0,"CLASSIFICATION_TYPE":"U","NORAD_CAT_ID":34553,"ELEMENT_SET_NO":999,"REV_AT_EPOCH":90048,"BSTAR":0.00071373,"MEAN_MOTION_DOT":3.348e-5,"MEAN_MOTION_DDOT":0},{"OBJECT_NAME":"COSMOS 2251 DEB","OBJECT_ID":"1993-036UQ","EPOCH":"2026-04-25T07:03:04.076352","MEAN_MOTION":14.38201463,"ECCENTRICITY":0.0022044,"INCLINATION":74.0391,"RA_OF_ASC_NODE":53.0188,"ARG_OF_PERICENTER":88.3295,"MEAN_ANOMALY":65.6707,"EPHEMERIS_TYPE":0,"CLASSIFICATION_TYPE":"U","NORAD_CAT_ID":34554,"ELEMENT_SET_NO":999,"REV_AT_EPOCH":89675,"BSTAR":0.00021477,"MEAN_MOTION_DOT":6.28e-6,"MEAN_MOTION_DDOT":0},{"OBJECT_NAME":"COSMOS 2251 DEB","OBJECT_ID":"1993-036US","EPOCH":"2026-04-25T17:14:41.938944","MEAN_MOTION":14.82347994,"ECCENTRICITY":0.0008219,"INCLINATION":74.0141,"RA_OF_ASC_NODE":220.5356,"ARG_OF_PERICENTER":259.0881,"MEAN_ANOMALY":221.5538,"EPHEMERIS_TYPE":0,"CLASSIFICATION_TYPE":"U","NORAD_CAT_ID":34556,"ELEMENT_SET_NO":999,"REV_AT_EPOCH":90311,"BSTAR":0.0017473,"MEAN_MOTION_DOT":0.00013984,"MEAN_MOTION_DDOT":0},{"OBJECT_NAME":"COSMOS 2251 DEB","OBJECT_ID":"1993-036UW","EPOCH":"2026-04-25T09:43:22.919232","MEAN_MOTION":14.75602123,"ECCENTRICITY":0.00141,"INCLINATION":74.0156,"RA_OF_ASC_NODE":241.0102,"ARG_OF_PERICENTER":292.5063,"MEAN_ANOMALY":123.8867,"EPHEMERIS_TYPE":0,"CLASSIFICATION_TYPE":"U","NORAD_CAT_ID":34560,"ELEMENT_SET_NO":999,"REV_AT_EPOCH":90221,"BSTAR":0.0014874,"MEAN_MOTION_DOT":0.00010147,"MEAN_MOTION_DDOT":0},{"OBJECT_NAME":"COSMOS 2251 DEB","OBJECT_ID":"1993-036UZ","EPOCH":"2026-04-25T19:31:50.552256","MEAN_MOTION":14.47012316,"ECCENTRICITY":0.0012765,"INCLINATION":74.0374,"RA_OF_ASC_NODE":313.2812,"ARG_OF_PERICENTER":17.3826,"MEAN_ANOMALY":359.6038,"EPHEMERIS_TYPE":0,"CLASSIFICATION_TYPE":"U","NORAD_CAT_ID":34563,"ELEMENT_SET_NO":999,"REV_AT_EPOCH":90136,"BSTAR":0.00031436,"MEAN_MOTION_DOT":1.118e-5,"MEAN_MOTION_DDOT":0},{"OBJECT_NAME":"COSMOS 2251 DEB","OBJECT_ID":"1993-036VA","EPOCH":"2026-04-25T19:23:43.817856","MEAN_MOTION":14.40931813,"ECCENTRICITY":0.0018148,"INCLINATION":74.0342,"RA_OF_ASC_NODE":349.9144,"ARG_OF_PERICENTER":65.2754,"MEAN_ANOMALY":65.721,"EPHEMERIS_TYPE":0,"CLASSIFICATION_TYPE":"U","NORAD_CAT_ID":34564,"ELEMENT_SET_NO":999,"REV_AT_EPOCH":89937,"BSTAR":0.00019327,"MEAN_MOTION_DOT":5.95e-6,"MEAN_MOTION_DDOT":0},{"OBJECT_NAME":"COSMOS 2251 DEB","OBJECT_ID":"1993-036VD","EPOCH":"2026-04-25T19:48:52.011072","MEAN_MOTION":14.24157007,"ECCENTRICITY":0.0074026,"INCLINATION":74.0404,"RA_OF_ASC_NODE":275.4196,"ARG_OF_PERICENTER":316.6282,"MEAN_ANOMALY":165.0106,"EPHEMERIS_TYPE":0,"CLASSIFICATION_TYPE":"U","NORAD_CAT_ID":34567,"ELEMENT_SET_NO":999,"REV_AT_EPOCH":89033,"BSTAR":0.00014566,"MEAN_MOTION_DOT":3.19e-6,"MEAN_MOTION_DDOT":0},{"OBJECT_NAME":"COSMOS 2251 DEB","OBJECT_ID":"1993-036VF","EPOCH":"2026-04-25T19:55:37.640064","MEAN_MOTION":14.25158625,"ECCENTRICITY":0.0157501,"INCLINATION":73.9902,"RA_OF_ASC_NODE":315.5748,"ARG_OF_PERICENTER":113.7422,"MEAN_ANOMALY":260.4053,"EPHEMERIS_TYPE":0,"CLASSIFICATION_TYPE":"U","NORAD_CAT_ID":34569,"ELEMENT_SET_NO":999,"REV_AT_EPOCH":88878,"BSTAR":0.00049703,"MEAN_MOTION_DOT":1.303e-5,"MEAN_MOTION_DDOT":0},{"OBJECT_NAME":"COSMOS 2251 DEB","OBJECT_ID":"1993-036VG","EPOCH":"2026-04-25T07:55:52.053312","MEAN_MOTION":14.00085109,"ECCENTRICITY":0.0191378,"INCLINATION":73.9594,"RA_OF_ASC_NODE":345.8884,"ARG_OF_PERICENTER":200.1935,"MEAN_ANOMALY":284.4303,"EPHEMERIS_TYPE":0,"CLASSIFICATION_TYPE":"U","NORAD_CAT_ID":34570,"ELEMENT_SET_NO":999,"REV_AT_EPOCH":87470,"BSTAR":0.00042376,"MEAN_MOTION_DOT":7.07e-6,"MEAN_MOTION_DDOT":0},{"OBJECT_NAME":"COSMOS 2251 DEB","OBJECT_ID":"1993-036VH","EPOCH":"2026-04-24T21:44:24.494784","MEAN_MOTION":14.51559249,"ECCENTRICITY":0.0058479,"INCLINATION":74.0387,"RA_OF_ASC_NODE":292.2705,"ARG_OF_PERICENTER":296.0513,"MEAN_ANOMALY":63.4634,"EPHEMERIS_TYPE":0,"CLASSIFICATION_TYPE":"U","NORAD_CAT_ID":34571,"ELEMENT_SET_NO":999,"REV_AT_EPOCH":89224,"BSTAR":0.0013916,"MEAN_MOTION_DOT":5.67e-5,"MEAN_MOTION_DDOT":0},{"OBJECT_NAME":"COSMOS 2251 DEB","OBJECT_ID":"1993-036VJ","EPOCH":"2026-04-25T18:19:21.267840","MEAN_MOTION":14.52417133,"ECCENTRICITY":0.0062301,"INCLINATION":74.0086,"RA_OF_ASC_NODE":222.8489,"ARG_OF_PERICENTER":264.8983,"MEAN_ANOMALY":249.8343,"EPHEMERIS_TYPE":0,"CLASSIFICATION_TYPE":"U","NORAD_CAT_ID":34572,"ELEMENT_SET_NO":999,"REV_AT_EPOCH":89322,"BSTAR":0.0016681,"MEAN_MOTION_DOT":6.951e-5,"MEAN_MOTION_DDOT":0},{"OBJECT_NAME":"COSMOS 2251 DEB","OBJECT_ID":"1993-036VL","EPOCH":"2026-04-25T20:02:38.841792","MEAN_MOTION":14.72745754,"ECCENTRICITY":0.0063317,"INCLINATION":74.0663,"RA_OF_ASC_NODE":142.9078,"ARG_OF_PERICENTER":131.5805,"MEAN_ANOMALY":40.41,"EPHEMERIS_TYPE":0,"CLASSIFICATION_TYPE":"U","NORAD_CAT_ID":34574,"ELEMENT_SET_NO":999,"REV_AT_EPOCH":90751,"BSTAR":0.00067037,"MEAN_MOTION_DOT":4.388e-5,"MEAN_MOTION_DDOT":0}]
